{"type": "FeatureCollection", "features": [ {"type": "Feature", "properties": {"norad_id": 39574, "name": "GPM-CORE", "group": "resource", "lat": 64.95376319861154, "lon": -64.35563961447102, "alt_km": 431.47681788561204, "timestamp": "2025-12-15T04:01:20.099754+00:00", "meta": {"OBJECT_NAME": "GPM-CORE", "OBJECT_ID": "2014-009C", "EPOCH": "2025-12-14T04:19:16.886784", "MEAN_MOTION": 15.44494521, "ECCENTRICITY": 0.00097658, "INCLINATION": 64.9734, "RA_OF_ASC_NODE": 207.8575, "ARG_OF_PERICENTER": 245.6852, "MEAN_ANOMALY": 114.3269, "EPHEMERIS_TYPE": 0, "CLASSIFICATION_TYPE": "U", "NORAD_CAT_ID": 39574, "ELEMENT_SET_NO": 999, "REV_AT_EPOCH": 66923, "BSTAR": 0.00018583137, "MEAN_MOTION_DOT": 8.428e-05, "MEAN_MOTION_DDOT": 0}, "tle": {"line1": "1 39574U 14009C   25348.18005656  .00008428  00000+0  18583-3 0  9994", "line2": "2 39574  64.9734 207.8575 0009765 245.6852 114.3269 15.44494521669237"}}, "geometry": {"type": "Point", "coordinates": [-64.35563961447102, 64.95376319861154]}}, {"type": "Feature", "properties": {"norad_id": 39634, "name": "SENTINEL-1A", "group": "resource", "lat": -81.81155279760519, "lon": 82.97207891542058, "alt_km": 703.9760411639218, "timestamp": "2025-12-15T04:01:20.099765+00:00", "meta": {"OBJECT_NAME": "SENTINEL-1A", "OBJECT_ID": "2014-016A", "EPOCH": "2025-12-14T07:02:20.745024", "MEAN_MOTION": 14.59199634, "ECCENTRICITY": 0.00012386, "INCLINATION": 98.1807, "RA_OF_ASC_NODE": 353.512, "ARG_OF_PERICENTER": 85.5781, "MEAN_ANOMALY": 274.556, "EPHEMERIS_TYPE": 0, "CLASSIFICATION_TYPE": "U", "NORAD_CAT_ID": 39634, "ELEMENT_SET_NO": 999, "REV_AT_EPOCH": 62305, "BSTAR": 1.6436472e-05, "MEAN_MOTION_DOT": 3.2e-07, "MEAN_MOTION_DDOT": 0}, "tle": {"line1": "1 39634U 14016A   25348.29329566  .00000032  00000+0  16436-4 0  9999", "line2": "2 39634  98.1807 353.5120 0001238  85.5781 274.5560 14.59199634623053"}}, "geometry": {"type": "Point", "coordinates": [82.97207891542058, -81.81155279760519]}}, {"type": "Feature", "properties": {"norad_id": 39731, "name": "KAZEOSAT 1", "group": "resource", "lat": 80.17654561726854, "lon": -61.03909234369849, "alt_km": 743.4734203045546, "timestamp": "2025-12-15T04:01:20.099775+00:00", "meta": {"OBJECT_NAME": "KAZEOSAT 1", "OBJECT_ID": "2014-024A", "EPOCH": "2025-12-14T07:35:58.494336", "MEAN_MOTION": 14.42064462, "ECCENTRICITY": 0.00011221, "INCLINATION": 98.343, "RA_OF_ASC_NODE": 60.1883, "ARG_OF_PERICENTER": 96.5115, "MEAN_ANOMALY": 263.6203, "EPHEMERIS_TYPE": 0, "CLASSIFICATION_TYPE": "U", "NORAD_CAT_ID": 39731, "ELEMENT_SET_NO": 999, "REV_AT_EPOCH": 61191, "BSTAR": 0.000141969, "MEAN_MOTION_DOT": 4.23e-06, "MEAN_MOTION_DDOT": 0}, "tle": {"line1": "1 39731U 14024A   25348.31664924  .00000423  00000+0  14197-3 0  9994", "line2": "2 39731  98.3430  60.1883 0001122  96.5115 263.6203 14.42064462611914"}}, "geometry": {"type": "Point", "coordinates": [-61.03909234369849, 80.17654561726854]}}, {"type": "Feature", "properties": {"norad_id": 39766, "name": "ALOS-2", "group": "resource", "lat": -53.65614418855311, "lon": 94.88915029487195, "alt_km": 638.8687230244859, "timestamp": "2025-12-15T04:01:20.099785+00:00", "meta": {"OBJECT_NAME": "ALOS-2", "OBJECT_ID": "2014-029A", "EPOCH": "2025-12-14T08:47:22.493184", "MEAN_MOTION": 14.79469978, "ECCENTRICITY": 0.0001379, "INCLINATION": 97.9225, "RA_OF_ASC_NODE": 83.1892, "ARG_OF_PERICENTER": 102.2886, "MEAN_ANOMALY": 257.848, "EPHEMERIS_TYPE": 0, "CLASSIFICATION_TYPE": "U", "NORAD_CAT_ID": 39766, "ELEMENT_SET_NO": 999, "REV_AT_EPOCH": 62425, "BSTAR": 0.00031508, "MEAN_MOTION_DOT": 2.302e-05, "MEAN_MOTION_DDOT": 0}, "tle": {"line1": "1 39766U 14029A   25348.36623256  .00002302  00000+0  31508-3 0  9998", "line2": "2 39766  97.9225  83.1892 0001379 102.2886 257.8480 14.79469978624252"}}, "geometry": {"type": "Point", "coordinates": [94.88915029487195, -53.65614418855311]}}, {"type": "Feature", "properties": {"norad_id": 40010, "name": "KAZEOSAT 2", "group": "resource", "lat": -81.26481606058262, "lon": -46.33003044793644, "alt_km": 618.2967874876085, "timestamp": "2025-12-15T04:01:20.099795+00:00", "meta": {"OBJECT_NAME": "KAZEOSAT 2", "OBJECT_ID": "2014-033A", "EPOCH": "2025-12-14T07:25:35.024160", "MEAN_MOTION": 14.85170103, "ECCENTRICITY": 0.00077831, "INCLINATION": 97.5507, "RA_OF_ASC_NODE": 192.5429, "ARG_OF_PERICENTER": 201.2576, "MEAN_ANOMALY": 158.8318, "EPHEMERIS_TYPE": 0, "CLASSIFICATION_TYPE": "U", "NORAD_CAT_ID": 40010, "ELEMENT_SET_NO": 999, "REV_AT_EPOCH": 62151, "BSTAR": 9.1598818e-05, "MEAN_MOTION_DOT": 7.35e-06, "MEAN_MOTION_DDOT": 0}, "tle": {"line1": "1 40010U 14033A   25348.30943315  .00000735  00000+0  91599-4 0  9997", "line2": "2 40010  97.5507 192.5429 0007783 201.2576 158.8318 14.85170103621519"}}, "geometry": {"type": "Point", "coordinates": [-46.33003044793644, -81.26481606058262]}}, {"type": "Feature", "properties": {"norad_id": 40011, "name": "HODOYOSHI-4", "group": "resource", "lat": 13.265468614206448, "lon": 176.14164410260523, "alt_km": 623.1772378677924, "timestamp": "2025-12-15T04:01:20.099806+00:00", "meta": {"OBJECT_NAME": "HODOYOSHI-4", "OBJECT_ID": "2014-033B", "EPOCH": "2025-12-14T06:58:26.586336", "MEAN_MOTION": 14.87490881, "ECCENTRICITY": 0.0023276, "INCLINATION": 97.5419, "RA_OF_ASC_NODE": 177.098, "ARG_OF_PERICENTER": 195.0391, "MEAN_ANOMALY": 165.0137, "EPHEMERIS_TYPE": 0, "CLASSIFICATION_TYPE": "U", "NORAD_CAT_ID": 40011, "ELEMENT_SET_NO": 999, "REV_AT_EPOCH": 62131, "BSTAR": 0.00030286855, "MEAN_MOTION_DOT": 2.706e-05, "MEAN_MOTION_DDOT": 0}, "tle": {"line1": "1 40011U 14033B   25348.29058549  .00002706  00000+0  30287-3 0  9998", "line2": "2 40011  97.5419 177.0980 0023276 195.0391 165.0137 14.87490881621319"}}, "geometry": {"type": "Point", "coordinates": [176.14164410260523, 13.265468614206448]}}, {"type": "Feature", "properties": {"norad_id": 40013, "name": "DEIMOS-2", "group": "resource", "lat": -38.37322431647634, "lon": 38.813384575789215, "alt_km": 595.3624025034424, "timestamp": "2025-12-15T04:01:20.099816+00:00", "meta": {"OBJECT_NAME": "DEIMOS-2", "OBJECT_ID": "2014-033D", "EPOCH": "2025-12-14T07:44:36.859776", "MEAN_MOTION": 14.92979887, "ECCENTRICITY": 8.84e-05, "INCLINATION": 97.6062, "RA_OF_ASC_NODE": 224.0705, "ARG_OF_PERICENTER": 107.9252, "MEAN_ANOMALY": 252.2064, "EPHEMERIS_TYPE": 0, "CLASSIFICATION_TYPE": "U", "NORAD_CAT_ID": 40013, "ELEMENT_SET_NO": 999, "REV_AT_EPOCH": 61013, "BSTAR": 0.0002122053, "MEAN_MOTION_DOT": 2.15e-05, "MEAN_MOTION_DDOT": 0}, "tle": {"line1": "1 40013U 14033D   25348.32264884  .00002150  00000+0  21221-3 0  9996", "line2": "2 40013  97.6062 224.0705 0000884 107.9252 252.2064 14.92979887610132"}}, "geometry": {"type": "Point", "coordinates": [38.813384575789215, -38.37322431647634]}}, {"type": "Feature", "properties": {"norad_id": 40015, "name": "HODOYOSHI-3", "group": "resource", "lat": -80.45612191337266, "lon": -152.33242641385218, "alt_km": 603.423430363724, "timestamp": "2025-12-15T04:01:20.099827+00:00", "meta": {"OBJECT_NAME": "HODOYOSHI-3", "OBJECT_ID": "2014-033F", "EPOCH": "2025-12-14T07:22:30.199872", "MEAN_MOTION": 14.84814036, "ECCENTRICITY": 0.00319463, "INCLINATION": 97.6197, "RA_OF_ASC_NODE": 154.0741, "ARG_OF_PERICENTER": 242.5815, "MEAN_ANOMALY": 117.215, "EPHEMERIS_TYPE": 0, "CLASSIFICATION_TYPE": "U", "NORAD_CAT_ID": 40015, "ELEMENT_SET_NO": 999, "REV_AT_EPOCH": 62018, "BSTAR": 0.00023906893, "MEAN_MOTION_DOT": 1.995e-05, "MEAN_MOTION_DDOT": 0}, "tle": {"line1": "1 40015U 14033F   25348.30729398  .00001995  00000+0  23907-3 0  9991", "line2": "2 40015  97.6197 154.0741 0031946 242.5815 117.2150 14.84814036620186"}}, "geometry": {"type": "Point", "coordinates": [-152.33242641385218, -80.45612191337266]}}, {"type": "Feature", "properties": {"norad_id": 40053, "name": "SPOT 7", "group": "resource", "lat": 31.27490682057808, "lon": -123.85655171148451, "alt_km": 688.5608702385662, "timestamp": "2025-12-15T04:01:20.099837+00:00", "meta": {"OBJECT_NAME": "SPOT 7", "OBJECT_ID": "2014-034A", "EPOCH": "2025-12-14T07:37:04.912608", "MEAN_MOTION": 14.60738011, "ECCENTRICITY": 0.00015558, "INCLINATION": 98.0905, "RA_OF_ASC_NODE": 50.3563, "ARG_OF_PERICENTER": 87.5539, "MEAN_ANOMALY": 272.584, "EPHEMERIS_TYPE": 0, "CLASSIFICATION_TYPE": "U", "NORAD_CAT_ID": 40053, "ELEMENT_SET_NO": 999, "REV_AT_EPOCH": 61014, "BSTAR": 0.00022607841, "MEAN_MOTION_DOT": 1.057e-05, "MEAN_MOTION_DDOT": 0}, "tle": {"line1": "1 40053U 14034A   25348.31741797  .00001057  00000+0  22608-3 0  9998", "line2": "2 40053  98.0905  50.3563 0001555  87.5539 272.5840 14.60738011610141"}}, "geometry": {"type": "Point", "coordinates": [-123.85655171148451, 31.27490682057808]}}, {"type": "Feature", "properties": {"norad_id": 40072, "name": "SKYSAT-B", "group": "resource", "lat": -44.03929977013494, "lon": -58.82210770074929, "alt_km": 617.2960867619295, "timestamp": "2025-12-15T04:01:20.099847+00:00", "meta": {"OBJECT_NAME": "SKYSAT-B", "OBJECT_ID": "2014-037D", "EPOCH": "2025-12-14T05:37:06.276288", "MEAN_MOTION": 14.87335119, "ECCENTRICITY": 0.0006267, "INCLINATION": 98.3608, "RA_OF_ASC_NODE": 292.0191, "ARG_OF_PERICENTER": 145.6568, "MEAN_ANOMALY": 214.5053, "EPHEMERIS_TYPE": 0, "CLASSIFICATION_TYPE": "U", "NORAD_CAT_ID": 40072, "ELEMENT_SET_NO": 999, "REV_AT_EPOCH": 61846, "BSTAR": 0.00023478177, "MEAN_MOTION_DOT": 2.06e-05, "MEAN_MOTION_DDOT": 0}, "tle": {"line1": "1 40072U 14037D   25348.23410042  .00002060  00000+0  23478-3 0  9990", "line2": "2 40072  98.3608 292.0191 0006267 145.6568 214.5053 14.87335119618466"}}, "geometry": {"type": "Point", "coordinates": [-58.82210770074929, -44.03929977013494]}}]}